{
  "type": "FeatureCollection",
  "features": [
    {
      "type": "Feature",
      "properties": {
        "norad_id": 66174,
        "name": "HTV-X1",
        "group": "stations",
        "lat": -48.123083083730634,
        "lon": -32.79606879158719,
        "alt_km": 420.3106032124888,
        "timestamp": "2025-12-24T07:45:04.965621+00:00",
        "meta_object_name": "HTV-X1",
        "meta_object_id": "2025-241A",
        "meta_epoch": "2025-12-23T18:17:18.636000",
        "meta_mean_motion": 15.49761422,
        "meta_eccentricity": 0.00031718,
        "meta_inclination": 51.6321,
        "meta_ra_of_asc_node": 87.8933,
        "meta_arg_of_pericenter": 292.1344,
        "meta_mean_anomaly": 67.9308,
        "meta_ephemeris_type": 0,
        "meta_classification_type": "U",
        "meta_norad_cat_id": 66174,
        "meta_element_set_no": 999,
        "meta_rev_at_epoch": 51,
        "meta_bstar": 0.00020966669,
        "meta_mean_motion_dot": 0.00011429,
        "meta_mean_motion_ddot": 0,
        "tle_line1": "1 66174U 25241A   25357.76202125  .00011429  00000+0  20967-3 0  9998",
        "tle_line2": "2 66174  51.6321  87.8933 0003171 292.1344  67.9308 15.49761422   519"
      },
      "geometry": {
        "type": "Point",
        "coordinates": [
          -32.79606879158719,
          -48.123083083730634
        ]
      }
    },
    {
      "type": "Feature",
      "properties": {
        "norad_id": 66515,
        "name": "SZ-21 MODULE",
        "group": "stations",
        "lat": 24.096226596745424,
        "lon": 94.9375536555009,
        "alt_km": 378.16101233596964,
        "timestamp": "2025-12-24T07:45:04.965631+00:00",
        "meta_object_name": "SZ-21 MODULE",
        "meta_object_id": "2025-246C",
        "meta_epoch": "2025-12-23T06:36:43.308864",
        "meta_mean_motion": 15.6302066,
        "meta_eccentricity": 0.00050381,
        "meta_inclination": 41.4773,
        "meta_ra_of_asc_node": 311.7518,
        "meta_arg_of_pericenter": 316.6622,
        "meta_mean_anomaly": 43.3822,
        "meta_ephemeris_type": 0,
        "meta_classification_type": "U",
        "meta_norad_cat_id": 66515,
        "meta_element_set_no": 999,
        "meta_rev_at_epoch": 609,
        "meta_bstar": 0.000303255,
        "meta_mean_motion_dot": 0.00028121,
        "meta_mean_motion_ddot": 0,
        "tle_line1": "1 66515U 25246C   25357.27550126  .00028121  00000+0  30326-3 0  9992",
        "tle_line2": "2 66515  41.4773 311.7518 0005038 316.6622  43.3822 15.63020660  6095"
      },
      "geometry": {
        "type": "Point",
        "coordinates": [
          94.9375536555009,
          24.096226596745424
        ]
      }
    },
    {
      "type": "Feature",
      "properties": {
        "norad_id": 66645,
        "name": "SHENZHOU-22",
        "group": "stations",
        "lat": 41.38287441734166,
        "lon": 40.23494844046495,
        "alt_km": 377.7905083144278,
        "timestamp": "2025-12-24T07:45:04.965642+00:00",
        "meta_object_name": "SHENZHOU-22",
        "meta_object_id": "2025-272A",
        "meta_epoch": "2025-12-23T22:08:03.098976",
        "meta_mean_motion": 15.5961343,
        "meta_eccentricity": 0.00080636,
        "meta_inclination": 41.4684,
        "meta_ra_of_asc_node": 308.7959,
        "meta_arg_of_pericenter": 129.7983,
        "meta_mean_anomaly": 230.3567,
        "meta_ephemeris_type": 0,
        "meta_classification_type": "U",
        "meta_norad_cat_id": 66645,
        "meta_element_set_no": 999,
        "meta_rev_at_epoch": 26550,
        "meta_bstar": 0.00017429265,
        "meta_mean_motion_dot": 0.0001399,
        "meta_mean_motion_ddot": 0,
        "tle_line1": "1 66645U 25272A   25357.92225809  .00013990  00000+0  17429-3 0  9991",
        "tle_line2": "2 66645  41.4684 308.7959 0008063 129.7983 230.3567 15.59613430265504"
      },
      "geometry": {
        "type": "Point",
        "coordinates": [
          40.23494844046495,
          41.38287441734166
        ]
      }
    },
    {
      "type": "Feature",
      "properties": {
        "norad_id": 66664,
        "name": "SOYUZ-MS 28",
        "group": "stations",
        "lat": -48.123083794033,
        "lon": -32.796066095322836,
        "alt_km": 420.310603185374,
        "timestamp": "2025-12-24T07:45:04.965651+00:00",
        "meta_object_name": "SOYUZ-MS 28",
        "meta_object_id": "2025-275A",
        "meta_epoch": "2025-12-23T18:17:18.636000",
        "meta_mean_motion": 15.49761422,
        "meta_eccentricity": 0.00031718,
        "meta_inclination": 51.6321,
        "meta_ra_of_asc_node": 87.8933,
        "meta_arg_of_pericenter": 292.1344,
        "meta_mean_anomaly": 67.9308,
        "meta_ephemeris_type": 0,
        "meta_classification_type": "U",
        "meta_norad_cat_id": 66664,
        "meta_element_set_no": 999,
        "meta_rev_at_epoch": 128,
        "meta_bstar": 0.00020966669,
        "meta_mean_motion_dot": 0.00011429,
        "meta_mean_motion_ddot": 0,
        "tle_line1": "1 66664U 25275A   25357.76202125  .00011429  00000+0  20967-3 0  9999",
        "tle_line2": "2 66664  51.6321  87.8933 0003171 292.1344  67.9308 15.49761422  1288"
      },
      "geometry": {
        "type": "Point",
        "coordinates": [
          -32.796066095322836,
          -48.123083794033
        ]
      }
    },
    {
      "type": "Feature",
      "properties": {
        "norad_id": 66906,
        "name": "1998-067XS",
        "group": "stations",
        "lat": -21.506591871996502,
        "lon": 66.75601707191802,
        "alt_km": 415.74956740518155,
        "timestamp": "2025-12-24T07:45:04.965661+00:00",
        "meta_object_name": "1998-067XS",
        "meta_object_id": "1998-067XS",
        "meta_epoch": "2025-12-23T13:19:00.111360",
        "meta_mean_motion": 15.51136039,
        "meta_eccentricity": 0.00028154,
        "meta_inclination": 51.6316,
        "meta_ra_of_asc_node": 88.7613,
        "meta_arg_of_pericenter": 256.8779,
        "meta_mean_anomaly": 103.1896,
        "meta_ephemeris_type": 0,
        "meta_classification_type": "U",
        "meta_norad_cat_id": 66906,
        "meta_element_set_no": 999,
        "meta_rev_at_epoch": 329,
        "meta_bstar": 0.00048512679,
        "meta_mean_motion_dot": 0.0002847,
        "meta_mean_motion_ddot": 0,
        "tle_line1": "1 66906U 98067XS  25357.55486240  .00028470  00000+0  48513-3 0  9997",
        "tle_line2": "2 66906  51.6316  88.7613 0002815 256.8779 103.1896 15.51136039  3290"
      },
      "geometry": {
        "type": "Point",
        "coordinates": [
          66.75601707191802,
          -21.506591871996502
        ]
      }
    },
    {
      "type": "Feature",
      "properties": {
        "norad_id": 66907,
        "name": "1998-067XT",
        "group": "stations",
        "lat": 30.78592499330556,
        "lon": 112.96900630007151,
        "alt_km": 405.1839306102256,
        "timestamp": "2025-12-24T07:45:04.965671+00:00",
        "meta_object_name": "1998-067XT",
        "meta_object_id": "1998-067XT",
        "meta_epoch": "2025-12-23T11:29:49.841376",
        "meta_mean_motion": 15.52745506,
        "meta_eccentricity": 0.0003882,
        "meta_inclination": 51.6313,
        "meta_ra_of_asc_node": 89.0045,
        "meta_arg_of_pericenter": 291.7662,
        "meta_mean_anomaly": 68.2915,
        "meta_ephemeris_type": 0,
        "meta_classification_type": "U",
        "meta_norad_cat_id": 66907,
        "meta_element_set_no": 999,
        "meta_rev_at_epoch": 328,
        "meta_bstar": 0.0010348952,
        "meta_mean_motion_dot": 0.00065231,
        "meta_mean_motion_ddot": 0,
        "tle_line1": "1 66907U 98067XT  25357.47904909  .00065231  00000+0  10349-2 0  9997",
        "tle_line2": "2 66907  51.6313  89.0045 0003882 291.7662  68.2915 15.52745506  3283"
      },
      "geometry": {
        "type": "Point",
        "coordinates": [
          112.96900630007151,
          30.78592499330556
        ]
      }
    },
    {
      "type": "Feature",
      "properties": {
        "norad_id": 66908,
        "name": "1998-067XU",
        "group": "stations",
        "lat": 34.699923370866465,
        "lon": 118.06144051100713,
        "alt_km": 404.6112101515255,
        "timestamp": "2025-12-24T07:45:04.965697+00:00",
        "meta_object_name": "1998-067XU",
        "meta_object_id": "1998-067XU",
        "meta_epoch": "2025-12-23T11:28:24.726144",
        "meta_mean_motion": 15.52842233,
        "meta_eccentricity": 0.00039209,
        "meta_inclination": 51.6312,
        "meta_ra_of_asc_node": 88.9976,
        "meta_arg_of_pericenter": 289.9814,
        "meta_mean_anomaly": 70.0754,
        "meta_ephemeris_type": 0,
        "meta_classification_type": "U",
        "meta_norad_cat_id": 66908,
        "meta_element_set_no": 999,
        "meta_rev_at_epoch": 328,
        "meta_bstar": 0.0010206619,
        "meta_mean_motion_dot": 0.00064549,
        "meta_mean_motion_ddot": 0,
        "tle_line1": "1 66908U 98067XU  25357.47806396  .00064549  00000+0  10207-2 0  9993",
        "tle_line2": "2 66908  51.6312  88.9976 0003920 289.9814  70.0754 15.52842233  3282"
      },
      "geometry": {
        "type": "Point",
        "coordinates": [
          118.06144051100713,
          34.699923370866465
        ]
      }
    }
  ]
}